NORAD_CAT_ID,OBJECT_NAME,OBJECT_TYPE,EPOCH,MEAN_MOTION,ECCENTRICITY,INCLINATION,RA_OF_ASC_NODE,ARG_OF_PERICENTER,MEAN_ANOMALY,BSTAR,MEAN_MOTION_DOT,MEAN_MOTION_DDOT,TLE_LINE0,TLE_LINE1,TLE_LINE2,SEMIMAJOR_AXIS,PERIOD,APOGEE,PERIGEE,DECAYED
52830.0,STARLINK-4091,PAYLOAD,2024-02-03 02:44:33,15.08813366,0.0001425,53.2162,231.115,84.1806,275.9349,3.2841e-05,2.34e-06,0.0,0 STARLINK-4091,1 52830U 22062A   24034.11427102  .00000234  00000-0  32841-4 0  9992,2 52830  53.2162 231.1150 0001425  84.1806 275.9349 15.08813366 90718,6917.962,95.439,540.813,538.841,0.0
52830.0,STARLINK-4091,PAYLOAD,2024-02-03 21:49:11,15.08819037,0.0001431,53.2161,227.5459,83.3649,276.7506,6.8938e-05,8.09e-06,0.0,0 STARLINK-4091,1 52830U 22062A   24034.90915919  .00000809  00000-0  68938-4 0  9991,2 52830  53.2161 227.5459 0001431  83.3649 276.7506 15.08819037 90323,6917.944,95.439,540.799,538.82,0.0
52830.0,STARLINK-4091,PAYLOAD,2024-02-04 20:04:35,15.08828734,0.0001422,53.2163,223.3834,84.7946,275.3208,0.00016933,2.407e-05,0.0,0 STARLINK-4091,1 52830U 22062A   24035.83652209  .00002407  00000-0  16933-3 0  9997,2 52830  53.2163 223.3834 0001422  84.7946 275.3208 15.08828734 90970,6917.915,95.438,540.764,538.796,0.0
52830.0,STARLINK-4091,PAYLOAD,2024-02-04 21:39:58,15.08829658,0.0001431,53.2164,223.0851,85.1694,274.9461,0.0001762,2.517e-05,0.0,0 STARLINK-4091,1 52830U 22062A   24035.90276176  .00002517  00000-0  17620-3 0  9996,2 52830  53.2164 223.0851 0001431  85.1694 274.9461 15.08829658 90479,6917.912,95.438,540.767,538.787,0.0
52830.0,STARLINK-4091,PAYLOAD,2024-02-05 11:58:26,15.08838169,0.0001384,53.2164,220.4097,88.165,271.9501,0.00020234,2.934e-05,0.0,0 STARLINK-4091,1 52830U 22062A   24036.49892037  .00002934  00000-0  20234-3 0  9999,2 52830  53.2164 220.4097 0001384  88.1650 271.9501 15.08838169 90563,6917.886,95.438,540.708,538.794,0.0
52830.0,STARLINK-4091,PAYLOAD,2024-02-05 18:19:58,15.08845613,0.0001398,53.2162,219.2212,84.8054,275.3098,0.00023137,3.397e-05,0.0,0 STARLINK-4091,1 52830U 22062A   24036.76387674  .00003397  00000-0  23137-3 0  9994,2 52830  53.2162 219.2212 0001398  84.8054 275.3098 15.08845613 91115,6917.863,95.437,540.695,538.761,0.0
52830.0,STARLINK-4091,PAYLOAD,2024-02-06 11:49:13,15.08856501,0.0001417,53.2153,215.9506,82.3597,277.7556,0.00026859,3.991e-05,0.0,0 STARLINK-4091,1 52830U 22062A   24037.49251222  .00003991  00000-0  26859-3 0  9998,2 52830  53.2153 215.9506 0001417  82.3597 277.7556 15.08856501 90719,6917.83,95.437,540.675,538.715,0.0
52830.0,STARLINK-4091,PAYLOAD,2024-02-06 18:10:45,15.08860883,0.0001453,53.2154,214.7618,80.327,279.7886,0.00030871,4.631e-05,0.0,0 STARLINK-4091,1 52830U 22062A   24037.75746811  .00004631  00000-0  30871-3 0  9991,2 52830  53.2154 214.7618 0001453  80.3270 279.7886 15.08860883 90757,6917.817,95.436,540.687,538.676,0.0
52830.0,STARLINK-4091,PAYLOAD,2024-02-07 14:50:45,15.0885004,0.0001594,53.2156,210.8968,78.4687,281.6484,4.7308e-05,4.65e-06,0.0,0 STARLINK-4091,1 52830U 22062A   24038.61858766  .00000465  00000-0  47308-4 0  9995,2 52830  53.2156 210.8968 0001594  78.4687 281.6484 15.08850040 90884,6917.85,95.437,540.817,538.612,0.0
52830.0,STARLINK-4091,PAYLOAD,2024-02-07 18:01:32,15.08849667,0.0001535,53.2158,210.3022,87.2964,272.8203,2.9355e-05,1.79e-06,0.0,0 STARLINK-4091,1 52830U 22062A   24038.75106642  .00000179  00000-0  29355-4 0  9993,2 52830  53.2158 210.3022 0001535  87.2964 272.8203 15.08849667 91417,6917.851,95.437,540.778,538.654,0.0
52830.0,STARLINK-4091,PAYLOAD,2024-02-07 21:12:18,15.08850226,0.0001437,53.2156,209.7059,91.7175,268.3982,1.1542e-05,-1.04e-06,0.0,0 STARLINK-4091,1 52830U 22062A   24038.88354427 -.00000104  00000-0  11542-4 0  9991,2 52830  53.2156 209.7059 0001437  91.7175 268.3982 15.08850226 90924,6917.849,95.437,540.708,538.72,0.0
52830.0,STARLINK-4091,PAYLOAD,2024-02-08 14:41:33,15.08846241,0.0001581,53.2167,206.4303,105.3931,254.7236,-0.00022772,-3.911e-05,0.0,0 STARLINK-4091,1 52830U 22062A   24039.61219382 -.00003911  00000-0 -22772-3 0  9999,2 52830  53.2167 206.4303 0001581 105.3931 254.7236 15.08846241 91030,6917.861,95.437,540.82,538.633,0.0
52830.0,STARLINK-4091,PAYLOAD,2024-02-08 17:52:19,15.0884142,0.0001425,53.2174,205.8361,96.7555,263.3599,-0.00014584,-2.608e-05,0.0,0 STARLINK-4091,1 52830U 22062A   24039.74467441 -.00002608  00000-0 -14584-3 0  9998,2 52830  53.2174 205.8361 0001425  96.7555 263.3599 15.08841420 91567,6917.876,95.437,540.727,538.755,0.0
52830.0,STARLINK-4091,PAYLOAD,2024-02-09 14:32:20,15.0884471,0.0001349,53.2171,201.9688,90.9416,269.1731,1.5433e-05,-4.2e-07,0.0,0 STARLINK-4091,1 52830U 22062A   24040.60578991 -.00000042  00000-0  15433-4 0  9992,2 52830  53.2171 201.9688 0001349  90.9416 269.1731 15.08844710 91185,6917.866,95.437,540.664,538.798,0.0
52830.0,STARLINK-4091,PAYLOAD,2024-02-09 16:07:43,15.08845985,0.0001377,53.2171,201.6716,92.828,267.287,3.6604e-05,2.95e-06,0.0,0 STARLINK-4091,1 52830U 22062A   24040.67202849  .00000295  00000-0  36604-4 0  9997,2 52830  53.2171 201.6716 0001377  92.8280 267.2870 15.08845985 91701,6917.862,95.437,540.68,538.775,0.0
52830.0,STARLINK-4091,PAYLOAD,2024-02-10 14:23:07,15.08842328,0.0001445,53.2166,197.5089,63.7745,296.3395,0.0001498,2.097e-05,0.0,0 STARLINK-4091,1 52830U 22062A   24041.59939146  .00002097  00000-0  14980-3 0  9990,2 52830  53.2166 197.5089 0001445  63.7745 296.3395 15.08842328 91332,6917.873,95.437,540.738,538.739,0.0
52830.0,STARLINK-4091,PAYLOAD,2024-02-10 20:44:39,15.08845277,0.0001452,53.2168,196.3194,66.9824,293.1322,0.00017087,2.433e-05,0.0,0 STARLINK-4091,1 52830U 22062A   24041.86434928  .00002433  00000-0  17087-3 0  9993,2 52830  53.2168 196.3194 0001452  66.9824 293.1322 15.08845277 91880,6917.864,95.437,540.734,538.725,0.0
52830.0,STARLINK-4091,PAYLOAD,2024-02-11 14:13:54,15.08845519,0.0001426,53.2171,193.0467,83.9034,276.2121,6.0488e-05,6.75e-06,0.0,0 STARLINK-4091,1 52830U 22062A   24042.59299053  .00000675  00000-0  60488-4 0  9992,2 52830  53.2171 193.0467 0001426  83.9034 276.2121 15.08845519 91488,6917.864,95.437,540.715,538.742,0.0
52830.0,STARLINK-4091,PAYLOAD,2024-02-11 17:24:40,15.08849434,0.0001494,53.2172,192.4508,69.7025,290.4127,9.8553e-05,1.281e-05,0.0,0 STARLINK-4091,1 52830U 22062A   24042.72546701  .00001281  00000-0  98553-4 0  9990,2 52830  53.2172 192.4508 0001494  69.7025 290.4127 15.08849434 91502,6917.852,95.437,540.75,538.683,0.0
52830.0,STARLINK-4091,PAYLOAD,2024-02-12 14:04:41,15.08848408,0.000163,53.218,188.5945,63.7584,296.3576,2.298e-06,-2.51e-06,0.0,0 STARLINK-4091,1 52830U 22062A   24043.58659037 -.00000251  00000-0  22980-5 0  9991,2 52830  53.2180 188.5945 0001630  63.7584 296.3576 15.08848408 91635,6917.855,95.437,540.847,538.592,0.0
52830.0,STARLINK-4091,PAYLOAD,2024-02-12 18:50:50,15.08851722,0.0001695,53.2189,187.6952,73.8434,286.2745,0.0001279,1.749e-05,0.0,0 STARLINK-4091,1 52830U 22062A   24043.78530304  .00001749  00000-0  12790-3 0  9996,2 52830  53.2189 187.6952 0001695  73.8434 286.2745 15.08851722 92178,6917.845,95.437,540.882,538.537,0.0
52830.0,STARLINK-4091,PAYLOAD,2024-02-13 02:47:46,15.08837543,0.0001387,53.2181,186.2082,119.2585,240.8546,2.5638e-05,1.2e-06,0.0,0 STARLINK-4091,1 52830U 22062A   24044.11651101  .00000120  00000-0  25638-4 0  9991,2 52830  53.2181 186.2082 0001387 119.2585 240.8546 15.08837543 92225,6917.888,95.438,540.712,538.793,0.0
52830.0,STARLINK-4091,PAYLOAD,2024-02-13 13:55:28,15.08841806,0.0001607,53.218,184.1282,92.2475,267.8701,-3.1118e-05,-7.83e-06,0.0,0 STARLINK-4091,1 52830U 22062A   24044.58019326 -.00000783  00000-0 -31118-4 0  9996,2 52830  53.2180 184.1282 0001607  92.2475 267.8701 15.08841806 91785,6917.875,95.437,540.852,538.628,0.0
52830.0,STARLINK-4091,PAYLOAD,2024-02-13 18:41:37,15.08844965,0.0001567,53.2181,183.2353,89.9047,270.2124,1.4608e-05,-5.5e-07,0.0,0 STARLINK-4091,1 52830U 22062A   24044.77891001 -.00000055  00000-0  14608-4 0  9991,2 52830  53.2181 183.2353 0001567  89.9047 270.2124 15.08844965 91818,6917.865,95.437,540.814,538.646,0.0
52830.0,STARLINK-4091,PAYLOAD,2024-02-14 02:38:30,15.08884972,0.0001398,53.2191,181.7514,81.6481,278.467,0.00043714,6.684e-05,0.0,0 STARLINK-4091,1 52830U 22062A   24045.11006972  .00006684  00000-0  43714-3 0  9997,2 52830  53.2191 181.7514 0001398  81.6481 278.4670 15.08884972 92374,6917.743,95.435,540.575,538.641,0.0
52830.0,STARLINK-4091,PAYLOAD,2024-02-14 12:10:53,15.08822358,9.55e-05,53.2177,179.9695,56.1401,303.9682,-0.000238,-4.072e-05,0.0,0 STARLINK-4091,1 52830U 22062A   24045.50756156 -.00004072  00000-0 -23800-3 0  9991,2 52830  53.2177 179.9695 0000955  56.1401 303.9682 15.08822358 92438,6917.934,95.439,540.46,539.139,0.0
52830.0,STARLINK-4091,PAYLOAD,2024-02-14 15:21:39,15.08820813,0.0001161,53.2178,179.3746,89.0328,271.0797,-0.00024714,-4.217e-05,0.0,0 STARLINK-4091,1 52830U 22062A   24045.64004449 -.00004217  00000-0 -24714-3 0  9993,2 52830  53.2178 179.3746 0001161  89.0328 271.0797 15.08820813 91944,6917.939,95.439,540.607,539.001,0.0
52830.0,STARLINK-4091,PAYLOAD,2024-02-14 18:32:26,15.08822134,0.0001249,53.2169,178.7785,95.4116,264.7019,-0.00022603,-3.882e-05,0.0,0 STARLINK-4091,1 52830U 22062A   24045.77252363 -.00003882  00000-0 -22603-3 0  9999,2 52830  53.2169 178.7785 0001249  95.4116 264.7019 15.08822134 91969,6917.935,95.439,540.664,538.936,0.0
52830.0,STARLINK-4091,PAYLOAD,2024-02-15 12:01:39,15.08827497,0.00011,53.2162,175.5128,81.9743,278.1374,1.4165e-05,-6.2e-07,0.0,0 STARLINK-4091,1 52830U 22062A   24046.50115687 -.00000062  00000-0  14165-4 0  9999,2 52830  53.2162 175.5128 0001100  81.9743 278.1374 15.08827497 92589,6917.919,95.438,540.545,539.023,0.0
52830.0,STARLINK-4091,PAYLOAD,2024-02-15 13:37:03,15.0883077,0.0001211,53.2162,175.2159,84.526,275.5871,6.5361e-05,7.52e-06,0.0,0 STARLINK-4091,1 52830U 22062A   24046.56739606  .00000752  00000-0  65361-4 0  9997,2 52830  53.2162 175.2159 0001211  84.5260 275.5871 15.08830770 92082,6917.909,95.438,540.611,538.936,0.0
